FENGYUN 1C DEB          
1 30646U 99025APD 17345.74328257  .00000497  00000-0  33296-3 0  9998
2 30646  98.9543  46.4774 0049557 319.8980  39.8533 14.04928130555513
